IRIDIUM 921             
1 24873U 97034E   24198.68258593  .00041485  00000+0  98756-3 0  9996
2 24873  86.3799 273.4880 0006028 130.5045 229.6736 15.41427625479725
IRIDIUM 26              
1 24903U 97043A   24198.65639840  .00000592  00000+0  19555-3 0  9999
2 24903  86.3939 251.3888 0002442  96.4566 263.6909 14.36436705408568
IRIDIUM 22              
1 24907U 97043E   24198.66515964  .00000562  00000+0  18941-3 0  9999
2 24907  86.3943 254.6462 0002232  93.3485 266.7967 14.35324010408634
DUMMY MASS 1            
1 24925U 97048A   24198.68243528  .00000738  00000+0  80717-4 0  9996
2 24925  86.3348 290.3604 0004563 248.0611 112.0129 14.86286396455283
DUMMY MASS 2            
1 24926U 97048B   24198.79119963  .00000731  00000+0  80463-4 0  9995
2 24926  86.3349 291.8589 0005252 264.6775  95.3850 14.86044167455084
IRIDIUM 29              
1 24944U 97051A   24198.79820548  .00000674  00000+0  22636-3 0  9990
2 24944  86.3951 284.4898 0001962  94.2460 265.8960 14.35775906405139
IRIDIUM 33              
1 24946U 97051C   24198.78310644  .00000479  00000+0  16320-3 0  9998
2 24946  86.3867 283.7456 0010104  93.3599 266.8753 14.34418584404652
IRIDIUM 28              
1 24948U 97051E   24198.78246164  .00000653  00000+0  21494-3 0  9997
2 24948  86.3956 282.2022 0002639  96.2917 263.8581 14.36730303405673
